[{"OBJECT_NAME":"STARLINK-2519","OBJECT_ID":"2021-036AF","EPOCH":"2026-03-09T12:02:38.168160","MEAN_MOTION":15.0639982,"ECCENTRICITY":0.00013539,"INCLINATION":53.0546,"RA_OF_ASC_NODE":93.0417,"ARG_OF_PERICENTER":81.895,"MEAN_ANOMALY":278.2193,"EPHEMERIS_TYPE":0,"CLASSIFICATION_TYPE":"U","NORAD_CAT_ID":48305,"ELEMENT_SET_NO":999,"REV_AT_EPOCH":26813,"BSTAR":-4.0415409e-5,"MEAN_MOTION_DOT":-8.83e-6,"MEAN_MOTION_DDOT":0},{"OBJECT_NAME":"COSMOS 397 DEB","OBJECT_ID":"1971-015AW","EPOCH":"2026-03-09T21:22:17.708736","MEAN_MOTION":13.61571848,"ECCENTRICITY":0.06543541,"INCLINATION":65.7199,"RA_OF_ASC_NODE":277.8174,"ARG_OF_PERICENTER":343.0973,"MEAN_ANOMALY":14.9162,"EPHEMERIS_TYPE":0,"CLASSIFICATION_TYPE":"U","NORAD_CAT_ID":5222,"ELEMENT_SET_NO":999,"REV_AT_EPOCH":64771,"BSTAR":0.0006425601,"MEAN_MOTION_DOT":2.044e-5,"MEAN_MOTION_DDOT":0}]
